{
  "norad_id": 59203,
  "name": "STARLINK-31577",
  "history": [
    {
      "epoch": "2026-03-28T20:00:01.999872",
      "apogee_km": 476.40231012072036,
      "perigee_km": 474.2708798326821,
      "latitude_deg": 29.209751707330053,
      "longitude_deg": -179.69777791993693,
      "semi_major_axis_km": 6853.473594976701,
      "eccentricity": 0.0001555,
      "inclination_deg": 53.1581,
      "raan_deg": 66.0437,
      "arg_perigee_deg": 93.9274,
      "mean_anomaly_deg": 344.0671,
      "mean_motion_rev_day": 15.301593
    },
    {
      "epoch": "2026-03-29T04:00:01.999584",
      "apogee_km": 476.1815850439689,
      "perigee_km": 474.31335243778904,
      "latitude_deg": 53.11737796253897,
      "longitude_deg": -147.69777824007906,
      "semi_major_axis_km": 6853.384468740878,
      "eccentricity": 0.0001363,
      "inclination_deg": 53.1582,
      "raan_deg": 64.4971,
      "arg_perigee_deg": 86.7245,
      "mean_anomaly_deg": 28.5223,
      "mean_motion_rev_day": 15.30189149
    }
  ]
}